IMAGE                   
1 26113U 00017A   26082.30394951  .00000108  00000+0  28851-2 0  9997
2 26113  94.1570 314.2258 7497250 297.5996   7.2515  1.68665867160052
