{
  "norad_id": 26113,
  "name": "IMAGE",
  "history": [
    {
      "epoch": "2026-03-23T07:17:41.237664",
      "apogee_km": 45783.77629604299,
      "perigee_km": 1082.9328625485932,
      "latitude_deg": 13.87120697002482,
      "longitude_deg": -59.520847039995715,
      "semi_major_axis_km": 29811.491579295795,
      "eccentricity": 0.74972504,
      "inclination_deg": 94.157,
      "raan_deg": 314.2258,
      "arg_perigee_deg": 297.5996,
      "mean_anomaly_deg": 7.2515,
      "mean_motion_rev_day": 1.68665867
    }
  ]
}